H1 CPF 01  gfz 2022 04 07 12  5972 terrasarx 
H2 0702601  6201 31698    2022 04 07 12 59 42 2022 04 12 00 00 42   120 1 1  0 0 0
H9
10 0 59679  19422.000000  0    6797191.013   1091625.879   -283091.613
10 0 59679  19542.000000  0    6728890.649    900985.557  -1182427.668
10 0 59679  19662.000000  0    6539656.330    696868.210  -2060974.606
10 0 59679  19782.000000  0    6232697.336    484936.060  -2903314.031
10 0 59679  19902.000000  0    5813383.894    270907.677  -3694694.295
10 0 59679  20022.000000  0    5289141.684     60419.509  -4421291.245
10 0 59679  20142.000000  0    4669306.313   -141108.111  -5070447.601
10 0 59679  20262.000000  0    3964944.832   -328596.864  -5630886.311
10 0 59679  20382.000000  0    3188649.168   -497425.890  -6092897.918
10 0 59679  20502.000000  0    2354303.681   -643535.057  -6448499.026
10 0 59679  20622.000000  0    1476833.091   -763512.980  -6691557.869
10 0 59679  20742.000000  0     571937.157   -854669.863  -6817889.966
10 0 59679  20862.000000  0    -344187.051   -915092.803  -6825322.806
10 0 59679  20982.000000  0   -1255128.584   -943683.162  -6713728.239
10 0 59679  21102.000000  0   -2144549.796   -940176.033  -6485025.081
10 0 59679  21222.000000  0   -2996473.107   -905140.950  -6143148.559
10 0 59679  21342.000000  0   -3795561.326   -839964.459  -5693989.775
10 0 59679  21462.000000  0   -4527392.562   -746814.613  -5145305.941
10 0 59679  21582.000000  0   -5178723.020   -628587.335  -4506597.269
10 0 59679  21702.000000  0   -5737732.263   -488836.342  -3788954.023
10 0 59679  21822.000000  0   -6194248.058   -331687.068  -3004873.738
10 0 59679  21942.000000  0   -6539943.368   -161735.638  -2168049.580
10 0 59679  22062.000000  0   -6768501.658     16063.733  -1293134.606
10 0 59679  22182.000000  0   -6875746.197    196522.243   -395483.320
10 0 59679  22302.000000  0   -6859725.297    374346.364    509124.490
10 0 59679  22422.000000  0   -6720753.634    544271.444   1404767.410
10 0 59679  22542.000000  0   -6461409.860    701195.183   2275671.117
10 0 59679  22662.000000  0   -6086487.849    840307.788   3106495.712
10 0 59679  22782.000000  0   -5602902.405    957215.479   3882614.189
10 0 59679  22902.000000  0   -5019552.743   1048053.922   4590374.938
10 0 59679  23022.000000  0   -4347148.643   1109588.887   5217343.640
10 0 59679  23142.000000  0   -3598004.031   1139301.609   5752520.039
10 0 59679  23262.000000  0   -2785803.146   1135457.519   6186527.874
10 0 59679  23382.000000  0   -1925343.172   1097156.623   6511775.046
10 0 59679  23502.000000  0   -1032258.129   1024365.297   6722580.223
10 0 59679  23622.000000  0    -122732.160    917927.916   6815264.811
10 0 59679  23742.000000  0     786793.356    779558.711   6788212.498
10 0 59679  23862.000000  0    1679915.674    611814.179   6641895.529
10 0 59679  23982.000000  0    2540565.130    418046.458   6378867.183
10 0 59679  24102.000000  0    3353294.045    202338.056   6003721.117
10 0 59679  24222.000000  0    4103556.372    -30581.364   5523016.168
10 0 59679  24342.000000  0    4777971.815   -275434.585   4945167.471
10 0 59679  24462.000000  0    5364570.696   -526510.828   4280305.075
10 0 59679  24582.000000  0    5853014.871   -777792.512   3540101.399
10 0 59679  24702.000000  0    6234790.600  -1023091.804   2737568.952
10 0 59679  24822.000000  0    6503367.003  -1256193.987   1886830.377
10 0 59679  24942.000000  0    6654315.560  -1471003.356   1002866.026
10 0 59679  25062.000000  0    6685389.373  -1661690.011    101244.923
10 0 59679  25182.000000  0    6596559.079  -1822833.150   -802158.653
10 0 59679  25302.000000  0    6390002.005  -1949555.320  -1691453.762
10 0 59679  25422.000000  0    6070047.848  -2037646.070  -2551020.889
10 0 59679  25542.000000  0    5643080.530  -2083670.919  -3365792.497
10 0 59679  25662.000000  0    5117401.060  -2085063.323  -4121519.642
10 0 59679  25782.000000  0    4503055.970  -2040197.671  -4805020.549
10 0 59679  25902.000000  0    3811634.583  -1948442.262  -5404406.960
10 0 59679  26022.000000  0    3056040.188  -1810191.077  -5909282.903
10 0 59679  26142.000000  0    2250243.328  -1626873.662  -6310913.913
10 0 59679  26262.000000  0    1409021.448  -1400943.536  -6602368.237
10 0 59679  26382.000000  0     547687.293  -1135845.575  -6778625.630
10 0 59679  26502.000000  0    -318186.259   -835963.855  -6836654.350
10 0 59679  26622.000000  0   -1173041.803   -506550.001  -6775457.136
10 0 59679  26742.000000  0   -2001610.548   -153633.285  -6596086.767
10 0 59679  26862.000000  0   -2789178.958    216087.046  -6301628.848
10 0 59679  26982.000000  0   -3521844.022    595364.617  -5897154.288
10 0 59679  27102.000000  0   -4186756.589    976543.406  -5389642.137
10 0 59679  27222.000000  0   -4772348.486   1351707.008  -4787870.097
10 0 59679  27342.000000  0   -5268539.659   1712839.079  -4102275.318
10 0 59679  27462.000000  0   -5666920.238   2051991.321  -3344782.696
10 0 59679  27582.000000  0   -5960903.296   2361454.120  -2528605.409
10 0 59679  27702.000000  0   -6145845.599   2633927.423  -1668019.045
10 0 59679  27822.000000  0   -6219131.897   2862687.799   -778112.434
10 0 59679  27942.000000  0   -6180220.129   3041747.217    125480.395
10 0 59679  28062.000000  0   -6030644.770   3165998.696   1026862.307
10 0 59679  28182.000000  0   -5773977.032   3231345.392   1910161.472
10 0 59679  28302.000000  0   -5415744.004   3234809.416   2759819.873
10 0 59679  28422.000000  0   -4963308.957   3174617.769   3560875.214
10 0 59679  28542.000000  0   -4425715.580   3050262.606   4299231.331
10 0 59679  28662.000000  0   -3813500.001   2862534.499   4961909.315
10 0 59679  28782.000000  0   -3138477.479   2613529.254   5537275.472
10 0 59679  28902.000000  0   -2413507.283   2306628.395   6015244.152
10 0 59679  29022.000000  0   -1652240.896   1946452.609   6387450.037
10 0 59679  29142.000000  0    -868859.713   1538790.081   6647388.074
10 0 59679  29262.000000  0     -77809.287   1090501.370   6790519.645
10 0 59679  29382.000000  0     706466.451    609402.612   6814346.863
10 0 59679  29502.000000  0    1469788.003    104129.276   6718453.132
10 0 59679  29622.000000  0    2198495.310   -416017.952   6504510.267
10 0 59679  29742.000000  0    2879691.607   -941243.792   6176252.134
10 0 59679  29862.000000  0    3501473.136  -1461441.652   5739414.322
10 0 59679  29982.000000  0    4053140.949  -1966387.797   5201639.523
10 0 59679  30102.000000  0    4525389.213  -2445942.184   4572349.177
10 0 59679  30222.000000  0    4910468.608  -2890252.990   3862584.907
10 0 59679  30342.000000  0    5202321.745  -3289961.187   3084818.432
10 0 59679  30462.000000  0    5396685.465  -3636398.894   2252731.839
10 0 59679  30582.000000  0    5491156.539  -3921777.472   1380974.385
10 0 59679  30702.000000  0    5485220.941  -4139361.592    484899.675
10 0 59679  30822.000000  0    5380244.971  -4283622.934   -419712.016
10 0 59679  30942.000000  0    5179428.409  -4350371.265  -1316940.543
10 0 59679  31062.000000  0    4887720.163  -4336857.653  -2191015.103
10 0 59679  31182.000000  0    4511698.933  -4241848.111  -3026598.893
10 0 59679  31302.000000  0    4059422.855  -4065666.371  -3809062.868
10 0 59679  31422.000000  0    3540251.880  -3810204.417  -4524743.203
10 0 59679  31542.000000  0    2964648.349  -3478901.971  -5161177.188
10 0 59679  31662.000000  0    2343960.677  -3076695.611  -5707313.533
10 0 59679  31782.000000  0    1690196.741  -2609940.339  -6153693.717
10 0 59679  31902.000000  0    1015791.208  -2086305.869  -6492606.148
10 0 59679  32022.000000  0     333369.276  -1514646.849  -6718209.617
10 0 59679  32142.000000  0    -344486.834   -904851.659  -6826623.123
10 0 59679  32262.000000  0   -1005464.521   -267673.088  -6815984.311
10 0 59679  32382.000000  0   -1637739.030    385457.139  -6686477.686
10 0 59679  32502.000000  0   -2230180.233   1042628.226  -6440331.111
10 0 59679  32622.000000  0   -2772544.026   1691662.023  -6081781.647
10 0 59679  32742.000000  0   -3255647.081   2320333.288  -5617010.830
10 0 59679  32862.000000  0   -3671523.410   2916596.879  -5054049.815
10 0 59679  32982.000000  0   -4013560.234   3468818.001  -4402652.059
10 0 59679  33102.000000  0   -4276608.556   3966000.359  -3674133.902
10 0 59679  33222.000000  0   -4457065.362   4398008.025  -2881186.832
10 0 59679  33342.000000  0   -4552927.919   4755776.635  -2037662.846
10 0 59679  33462.000000  0   -4563817.075   5031507.797  -1158335.169
10 0 59679  33582.000000  0   -4490969.380   5218843.454   -258638.348
10 0 59679  33702.000000  0   -4337194.766   5313013.410    645609.030
10 0 59679  33822.000000  0   -4106802.807   5310952.128   1538489.293
10 0 59679  33942.000000  0   -3805498.287   5211381.759   2404276.693
10 0 59679  34062.000000  0   -3440247.247   5014857.154   3227723.726
10 0 59679  34182.000000  0   -3019118.266   4723774.119   3994336.094
10 0 59679  34302.000000  0   -2551104.748   4342341.317   4690632.043
10 0 59679  34422.000000  0   -2045931.170   3876515.483   5304381.480
10 0 59679  34542.000000  0   -1513848.792   3333901.830   5824819.836
10 0 59679  34662.000000  0    -965425.144   2723622.738   6242832.799
10 0 59679  34782.000000  0    -411332.997   2056157.680   6551109.330
10 0 59679  34902.000000  0     137856.541   1343159.764   6744263.025
10 0 59679  35022.000000  0     671875.391    597249.618   6818921.264
10 0 59679  35142.000000  0    1180949.593   -168208.183   6773779.432
10 0 59679  35262.000000  0    1655977.085   -939343.495   6609623.166
10 0 59679  35382.000000  0    2088690.149  -1702031.477   6329315.805
10 0 59679  35502.000000  0    2471799.839  -2442150.582   5937752.463
10 0 59679  35622.000000  0    2799120.871  -3145845.278   5441780.041
10 0 59679  35742.000000  0    3065673.651  -3799787.880   4850083.016
10 0 59679  35862.000000  0    3267762.139  -4391434.906   4173037.367
99
